HAWK-A                  
1 43765U 18099H   26068.67628545  .00008617  00000+0  36104-3 0  9995
2 43765  97.4051 122.2425 0034260 275.5523  84.1807 15.23231043397949
STARLINK-31329          
1 59169U 24044T   26068.49755230 -.00001185  00000+0 -33549-4 0  9995
2 59169  43.0068 108.3313 0001714 285.7060  74.3603 15.27578170113532
